{"fetched_at":"2026-07-20T18:29:31.742Z","source":"https://celestrak.org/NORAD/elements/gp.php?NAME=KINEIS&FORMAT=JSON","constellation":"kineis","records":[{"OBJECT_NAME":"KINEIS-1B","OBJECT_ID":"2024-114A","EPOCH":"2026-07-20T05:35:54.449376","CLASSIFICATION_TYPE":"U","MEAN_MOTION":14.80671012,"ECCENTRICITY":0.0002578,"INCLINATION":97.9828,"RA_OF_ASC_NODE":225.2609,"ARG_OF_PERICENTER":26.7621,"MEAN_ANOMALY":333.3724,"EPHEMERIS_TYPE":0,"NORAD_CAT_ID":60079,"ELEMENT_SET_NO":999,"REV_AT_EPOCH":11229,"BSTAR":0.000050855241,"MEAN_MOTION_DOT":0.00000338,"MEAN_MOTION_DDOT":0},{"OBJECT_NAME":"KINEIS-1C","OBJECT_ID":"2024-114C","EPOCH":"2026-07-20T08:01:38.697024","CLASSIFICATION_TYPE":"U","MEAN_MOTION":14.80672892,"ECCENTRICITY":0.00025676,"INCLINATION":97.9842,"RA_OF_ASC_NODE":225.2182,"ARG_OF_PERICENTER":88.4209,"MEAN_ANOMALY":271.7297,"EPHEMERIS_TYPE":0,"NORAD_CAT_ID":60081,"ELEMENT_SET_NO":999,"REV_AT_EPOCH":11228,"BSTAR":0.000052201434,"MEAN_MOTION_DOT":0.00000348,"MEAN_MOTION_DDOT":0},{"OBJECT_NAME":"KINEIS-1D","OBJECT_ID":"2024-114D","EPOCH":"2026-07-20T07:43:32.275776","CLASSIFICATION_TYPE":"U","MEAN_MOTION":14.76366258,"ECCENTRICITY":0.0002983,"INCLINATION":97.9879,"RA_OF_ASC_NODE":221.0966,"ARG_OF_PERICENTER":90.5043,"MEAN_ANOMALY":269.6508,"EPHEMERIS_TYPE":0,"NORAD_CAT_ID":60082,"ELEMENT_SET_NO":999,"REV_AT_EPOCH":11201,"BSTAR":0.000053066252,"MEAN_MOTION_DOT":0.00000318,"MEAN_MOTION_DDOT":0},{"OBJECT_NAME":"KINEIS-1E","OBJECT_ID":"2024-114E","EPOCH":"2026-07-20T06:49:52.941792","CLASSIFICATION_TYPE":"U","MEAN_MOTION":14.80698708,"ECCENTRICITY":0.00042301,"INCLINATION":97.8945,"RA_OF_ASC_NODE":224.1815,"ARG_OF_PERICENTER":99.2907,"MEAN_ANOMALY":260.8784,"EPHEMERIS_TYPE":0,"NORAD_CAT_ID":60083,"ELEMENT_SET_NO":999,"REV_AT_EPOCH":11228,"BSTAR":0.000057120876,"MEAN_MOTION_DOT":0.00000387,"MEAN_MOTION_DDOT":0},{"OBJECT_NAME":"KINEIS-1A","OBJECT_ID":"2024-114F","EPOCH":"2026-07-20T07:38:05.606016","CLASSIFICATION_TYPE":"U","MEAN_MOTION":14.8068625,"ECCENTRICITY":0.00051152,"INCLINATION":97.8918,"RA_OF_ASC_NODE":224.3064,"ARG_OF_PERICENTER":49.8846,"MEAN_ANOMALY":310.2814,"EPHEMERIS_TYPE":0,"NORAD_CAT_ID":60084,"ELEMENT_SET_NO":999,"REV_AT_EPOCH":11229,"BSTAR":0.000048406763,"MEAN_MOTION_DOT":0.0000032,"MEAN_MOTION_DDOT":0},{"OBJECT_NAME":"KINEIS-3C","OBJECT_ID":"2024-172A","EPOCH":"2026-07-20T05:42:31.773600","CLASSIFICATION_TYPE":"U","MEAN_MOTION":14.72299331,"ECCENTRICITY":0.00025098,"INCLINATION":98.0433,"RA_OF_ASC_NODE":290.7865,"ARG_OF_PERICENTER":74.6444,"MEAN_ANOMALY":285.5041,"EPHEMERIS_TYPE":0,"NORAD_CAT_ID":61220,"ELEMENT_SET_NO":999,"REV_AT_EPOCH":9793,"BSTAR":0.00015423941,"MEAN_MOTION_DOT":0.00000925,"MEAN_MOTION_DDOT":0},{"OBJECT_NAME":"KINEIS-3D","OBJECT_ID":"2024-172B","EPOCH":"2026-07-19T19:45:39.754656","CLASSIFICATION_TYPE":"U","MEAN_MOTION":14.72294735,"ECCENTRICITY":0.00023297,"INCLINATION":98.0436,"RA_OF_ASC_NODE":290.3862,"ARG_OF_PERICENTER":77.8102,"MEAN_ANOMALY":282.3366,"EPHEMERIS_TYPE":0,"NORAD_CAT_ID":61221,"ELEMENT_SET_NO":999,"REV_AT_EPOCH":9815,"BSTAR":0.000083964578,"MEAN_MOTION_DOT":0.00000481,"MEAN_MOTION_DDOT":0},{"OBJECT_NAME":"KINEIS-3E","OBJECT_ID":"2024-172C","EPOCH":"2026-07-20T05:08:18.370464","CLASSIFICATION_TYPE":"U","MEAN_MOTION":14.72285756,"ECCENTRICITY":0.0001677,"INCLINATION":98.0427,"RA_OF_ASC_NODE":290.754,"ARG_OF_PERICENTER":86.0231,"MEAN_ANOMALY":274.1168,"EPHEMERIS_TYPE":0,"NORAD_CAT_ID":61222,"ELEMENT_SET_NO":999,"REV_AT_EPOCH":9821,"BSTAR":0.00015137523,"MEAN_MOTION_DOT":0.00000907,"MEAN_MOTION_DDOT":0},{"OBJECT_NAME":"KINEIS-3A","OBJECT_ID":"2024-172D","EPOCH":"2026-07-20T04:44:18.594816","CLASSIFICATION_TYPE":"U","MEAN_MOTION":14.72318981,"ECCENTRICITY":0.00018257,"INCLINATION":98.0423,"RA_OF_ASC_NODE":290.8356,"ARG_OF_PERICENTER":31.3963,"MEAN_ANOMALY":328.7353,"EPHEMERIS_TYPE":0,"NORAD_CAT_ID":61223,"ELEMENT_SET_NO":999,"REV_AT_EPOCH":9763,"BSTAR":0.00014937964,"MEAN_MOTION_DOT":0.00000895,"MEAN_MOTION_DDOT":0},{"OBJECT_NAME":"KINEIS-3B","OBJECT_ID":"2024-172E","EPOCH":"2026-07-20T05:57:13.462272","CLASSIFICATION_TYPE":"U","MEAN_MOTION":14.72305323,"ECCENTRICITY":0.00012216,"INCLINATION":98.0418,"RA_OF_ASC_NODE":290.9076,"ARG_OF_PERICENTER":15.2327,"MEAN_ANOMALY":344.8917,"EPHEMERIS_TYPE":0,"NORAD_CAT_ID":61224,"ELEMENT_SET_NO":999,"REV_AT_EPOCH":9821,"BSTAR":0.00014974064,"MEAN_MOTION_DOT":0.00000897,"MEAN_MOTION_DDOT":0},{"OBJECT_NAME":"KINEIS-5C","OBJECT_ID":"2024-219A","EPOCH":"2026-07-20T07:02:12.465312","CLASSIFICATION_TYPE":"U","MEAN_MOTION":14.72318281,"ECCENTRICITY":0.00045515,"INCLINATION":97.9074,"RA_OF_ASC_NODE":359.2316,"ARG_OF_PERICENTER":158.5852,"MEAN_ANOMALY":201.5547,"EPHEMERIS_TYPE":0,"NORAD_CAT_ID":62081,"ELEMENT_SET_NO":999,"REV_AT_EPOCH":8862,"BSTAR":0.000057158093,"MEAN_MOTION_DOT":0.00000313,"MEAN_MOTION_DDOT":0},{"OBJECT_NAME":"KINEIS-5D","OBJECT_ID":"2024-219B","EPOCH":"2026-07-20T06:01:38.324064","CLASSIFICATION_TYPE":"U","MEAN_MOTION":14.72498575,"ECCENTRICITY":0.00056587,"INCLINATION":97.9186,"RA_OF_ASC_NODE":359.2669,"ARG_OF_PERICENTER":153.3646,"MEAN_ANOMALY":206.7854,"EPHEMERIS_TYPE":0,"NORAD_CAT_ID":62082,"ELEMENT_SET_NO":999,"REV_AT_EPOCH":8862,"BSTAR":0.000078240811,"MEAN_MOTION_DOT":0.00000448,"MEAN_MOTION_DDOT":0},{"OBJECT_NAME":"KINEIS-5E","OBJECT_ID":"2024-219C","EPOCH":"2026-07-20T06:28:16.596192","CLASSIFICATION_TYPE":"U","MEAN_MOTION":14.72302696,"ECCENTRICITY":0.00071336,"INCLINATION":97.903,"RA_OF_ASC_NODE":359.3002,"ARG_OF_PERICENTER":149.9183,"MEAN_ANOMALY":210.2435,"EPHEMERIS_TYPE":0,"NORAD_CAT_ID":62083,"ELEMENT_SET_NO":999,"REV_AT_EPOCH":8863,"BSTAR":0.00005784872,"MEAN_MOTION_DOT":0.00000317,"MEAN_MOTION_DDOT":0},{"OBJECT_NAME":"KINEIS-5A","OBJECT_ID":"2024-219D","EPOCH":"2026-07-19T05:29:02.554656","CLASSIFICATION_TYPE":"U","MEAN_MOTION":14.72272718,"ECCENTRICITY":0.00041218,"INCLINATION":97.897,"RA_OF_ASC_NODE":358.5651,"ARG_OF_PERICENTER":186.3449,"MEAN_ANOMALY":173.7707,"EPHEMERIS_TYPE":0,"NORAD_CAT_ID":62084,"ELEMENT_SET_NO":999,"REV_AT_EPOCH":8848,"BSTAR":0.000075213977,"MEAN_MOTION_DOT":0.00000427,"MEAN_MOTION_DDOT":0},{"OBJECT_NAME":"KINEIS-5B","OBJECT_ID":"2024-219E","EPOCH":"2026-07-20T06:43:24.733632","CLASSIFICATION_TYPE":"U","MEAN_MOTION":14.78391488,"ECCENTRICITY":0.00027778,"INCLINATION":98.0096,"RA_OF_ASC_NODE":4.9285,"ARG_OF_PERICENTER":135.6505,"MEAN_ANOMALY":224.4929,"EPHEMERIS_TYPE":0,"NORAD_CAT_ID":62085,"ELEMENT_SET_NO":999,"REV_AT_EPOCH":8889,"BSTAR":0.000084071651,"MEAN_MOTION_DOT":0.0000056,"MEAN_MOTION_DDOT":0},{"OBJECT_NAME":"KINEIS-2C","OBJECT_ID":"2025-028B","EPOCH":"2026-07-20T02:55:24.109248","CLASSIFICATION_TYPE":"U","MEAN_MOTION":14.7343685,"ECCENTRICITY":0.00045843,"INCLINATION":98.1226,"RA_OF_ASC_NODE":255.5501,"ARG_OF_PERICENTER":146.8785,"MEAN_ANOMALY":213.271,"EPHEMERIS_TYPE":0,"NORAD_CAT_ID":62929,"ELEMENT_SET_NO":999,"REV_AT_EPOCH":7746,"BSTAR":0.00011522128,"MEAN_MOTION_DOT":0.00000696,"MEAN_MOTION_DDOT":0}]}
