KINEIS-1B               
1 60079U 24114A   26201.23326909  .00000338  00000+0  50855-4 0  9999
2 60079  97.9828 225.2609 0002578  26.7621 333.3724 14.80671012112299
KINEIS-1C               
1 60081U 24114C   26201.33447566  .00000348  00000+0  52201-4 0  9994
2 60081  97.9842 225.2182 0002567  88.4209 271.7297 14.80672892112285
KINEIS-1D               
1 60082U 24114D   26201.32190134  .00000318  00000+0  53066-4 0  9997
2 60082  97.9879 221.0966 0002983  90.5043 269.6508 14.76366258112015
KINEIS-1E               
1 60083U 24114E   26201.28464053  .00000387  00000+0  57121-4 0  9999
2 60083  97.8945 224.1815 0004230  99.2907 260.8784 14.80698708112289
KINEIS-1A               
1 60084U 24114F   26201.31812044  .00000320  00000+0  48407-4 0  9995
2 60084  97.8918 224.3064 0005115  49.8846 310.2814 14.80686250112298
KINEIS-3C               
1 61220U 24172A   26201.23786775  .00000925  00000+0  15424-3 0  9997
2 61220  98.0433 290.7865 0002509  74.6444 285.5041 14.72299331 97936
KINEIS-3D               
1 61221U 24172B   26200.82337679  .00000481  00000+0  83965-4 0  9990
2 61221  98.0436 290.3862 0002329  77.8102 282.3366 14.72294735 98152
KINEIS-3E               
1 61222U 24172C   26201.21410151  .00000907  00000+0  15138-3 0  9991
2 61222  98.0427 290.7540 0001677  86.0231 274.1168 14.72285756 98219
KINEIS-3A               
1 61223U 24172D   26201.19743744  .00000895  00000+0  14938-3 0  9999
2 61223  98.0423 290.8356 0001825  31.3963 328.7353 14.72318981 97636
KINEIS-3B               
1 61224U 24172E   26201.24807248  .00000897  00000+0  14974-3 0  9998
2 61224  98.0418 290.9076 0001221  15.2327 344.8917 14.72305323 98212
KINEIS-5C               
1 62081U 24219A   26201.29319983  .00000313  00000+0  57158-4 0  9996
2 62081  97.9074 359.2316 0004551 158.5852 201.5547 14.72318281 88628
KINEIS-5D               
1 62082U 24219B   26201.25113801  .00000448  00000+0  78241-4 0  9999
2 62082  97.9186 359.2669 0005658 153.3646 206.7854 14.72498575 88620
KINEIS-5E               
1 62083U 24219C   26201.26963653  .00000317  00000+0  57849-4 0  9995
2 62083  97.9030 359.3002 0007133 149.9183 210.2435 14.72302696 88632
KINEIS-5A               
1 62084U 24219D   26200.22850179  .00000427  00000+0  75214-4 0  9997
2 62084  97.8970 358.5651 0004121 186.3449 173.7707 14.72272718 88489
KINEIS-5B               
1 62085U 24219E   26201.28014738  .00000560  00000+0  84072-4 0  9998
2 62085  98.0096   4.9285 0002777 135.6505 224.4929 14.78391488 88899
KINEIS-2C               
1 62929U 25028B   26201.12180682  .00000696  00000+0  11522-3 0  9998
2 62929  98.1226 255.5501 0004584 146.8785 213.2710 14.73436850 77462
